*******************************************************************************
Ephemeris / WWW_USER Mon Jul 15 19:15:59 2024 Pasadena, USA      / Horizons    
*******************************************************************************
Target body name: (2018 WV1)                      {source: JPL#17}
Center body name: Earth (399)                     {source: DE441}
Center-site name: Gemini South Obs., Cerro Pachon
*******************************************************************************
Start time      : A.D. 2018-Nov-13 23:24:00.0000 UT      
Stop  time      : A.D. 2018-Nov-14 09:30:00.0000 UT      
Step-size       : 1 minutes
*******************************************************************************
Target pole/equ : undefined
Target radii    : undefined                                                    
Center geodetic : 289.2634, -30.2406227, 2.71233  {E-lon(deg),Lat(deg),Alt(km)}
Center cylindric: 289.2634,5517.21435,-3194.81213 {E-lon(deg),Dxy(km),Dz(km)}
Center pole/equ : ITRF93                          {East-longitude positive}
Center radii    : 6378.137, 6378.137, 6356.752 km {Equator_a, b, pole_c}       
Target primary  : Sun
Vis. interferer : MOON (R_eq= 1737.400) km        {source: DE441}
Rel. light bend : Sun                             {source: DE441}
Rel. lght bnd GM: 1.3271E+11 km^3/s^2                                          
Small-body perts: Yes                             {source: SB441-N16}
Atmos refraction: NO (AIRLESS)
RA format       : HMS
Time format     : CAL 
Calendar mode   : Mixed Julian/Gregorian
RTS-only print  : NO       
EOP file        : eop.240715.p241008                                           
EOP coverage    : DATA-BASED 1962-JAN-20 TO 2024-JUL-15. PREDICTS-> 2024-OCT-07
Units conversion: 1 au= 149597870.700 km, c= 299792.458 km/s, 1 day= 86400.0 s 
Table cut-offs 1: Elevation (-90.0deg=NO ),Airmass (>38.000=NO), Daylight (YES)
Table cut-offs 2: Solar elongation (  0.0,180.0=NO ),Local Hour Angle( 0.0=NO )
Table cut-offs 3: RA/DEC angular rate (     0.0=NO )                           
*******************************************************************************
Initial IAU76/J2000 heliocentric ecliptic osculating elements (au, days, deg.):
  EPOCH=  2458458.5 ! 2018-Dec-06.00 (TDB)         Residual RMS= .12928        
   EC= .06869100257422787  QR= .9715505345748198   TP= 2458416.866413563       
   OM= 248.5061090469913   W=  141.3742304527303   IN= 1.905403987972275       
  Equivalent ICRF heliocentric cartesian coordinates (au, au/d):
   X= 2.787163119783287E-01  Y= 8.719775267121872E-01  Z= 3.748421051204766E-01
  VX=-1.676682657337402E-02 VY= 5.516972965834891E-03 VZ= 1.749720915605096E-03
Asteroid physical parameters (km, seconds, rotational period in hours):        
   GM= n.a.                RAD= n.a.               ROTPER= n.a.                
   H= 30.3                 G= .150                 B-V= n.a.                   
                           ALBEDO= n.a.            STYP= n.a.                  
*******************************************************************************
 Date__(UT)__HR:MN     R.A._________(ICRF)_________DEC
******************************************************
$$SOE
 2018-Nov-14 03:30  m  01 34 44.476361 +22 25 16.86653
 2018-Nov-14 03:31  m  01 34 44.314798 +22 25 16.81364
 2018-Nov-14 03:32  m  01 34 44.153331 +22 25 16.75797
 2018-Nov-14 03:33  m  01 34 43.991962 +22 25 16.69951
 2018-Nov-14 03:34  m  01 34 43.830694 +22 25 16.63826
 2018-Nov-14 03:35  m  01 34 43.669528 +22 25 16.57423
 2018-Nov-14 03:36  m  01 34 43.508466 +22 25 16.50743
 2018-Nov-14 03:37  m  01 34 43.347513 +22 25 16.43785
 2018-Nov-14 03:38  m  01 34 43.186668 +22 25 16.36550
 2018-Nov-14 03:39  m  01 34 43.025936 +22 25 16.29037
 2018-Nov-14 03:40  m  01 34 42.865318 +22 25 16.21248
 2018-Nov-14 03:41  m  01 34 42.704816 +22 25 16.13182
 2018-Nov-14 03:42  m  01 34 42.544433 +22 25 16.04839
 2018-Nov-14 03:43  m  01 34 42.384171 +22 25 15.96221
 2018-Nov-14 03:44  m  01 34 42.224032 +22 25 15.87327
 2018-Nov-14 03:45  m  01 34 42.064019 +22 25 15.78158
 2018-Nov-14 03:46  m  01 34 41.904134 +22 25 15.68713
 2018-Nov-14 03:47  m  01 34 41.744379 +22 25 15.58993
 2018-Nov-14 03:48  m  01 34 41.584757 +22 25 15.48999
 2018-Nov-14 03:49  m  01 34 41.425269 +22 25 15.38730
 2018-Nov-14 03:50  m  01 34 41.265919 +22 25 15.28188
 2018-Nov-14 03:51  m  01 34 41.106708 +22 25 15.17372
 2018-Nov-14 03:52  m  01 34 40.947638 +22 25 15.06282
 2018-Nov-14 03:53  m  01 34 40.788712 +22 25 14.94920
 2018-Nov-14 03:54  m  01 34 40.629932 +22 25 14.83285
 2018-Nov-14 03:55  m  01 34 40.471301 +22 25 14.71377
 2018-Nov-14 03:56  m  01 34 40.312821 +22 25 14.59198
 2018-Nov-14 03:57  m  01 34 40.154493 +22 25 14.46747
 2018-Nov-14 03:58  m  01 34 39.996320 +22 25 14.34025
 2018-Nov-14 03:59  m  01 34 39.838305 +22 25 14.21031
 2018-Nov-14 04:00  m  01 34 39.680450 +22 25 14.07767
 2018-Nov-14 04:01  m  01 34 39.522756 +22 25 13.94233
 2018-Nov-14 04:02  m  01 34 39.365227 +22 25 13.80430
 2018-Nov-14 04:03  m  01 34 39.207864 +22 25 13.66356
 2018-Nov-14 04:04  m  01 34 39.050670 +22 25 13.52014
 2018-Nov-14 04:05  m  01 34 38.893647 +22 25 13.37403
 2018-Nov-14 04:06  m  01 34 38.736796 +22 25 13.22524
 2018-Nov-14 04:07  m  01 34 38.580121 +22 25 13.07377
 2018-Nov-14 04:08  m  01 34 38.423624 +22 25 12.91962
 2018-Nov-14 04:09  m  01 34 38.267307 +22 25 12.76281
 2018-Nov-14 04:10  m  01 34 38.111171 +22 25 12.60333
 2018-Nov-14 04:11  m  01 34 37.955220 +22 25 12.44118
 2018-Nov-14 04:12  m  01 34 37.799455 +22 25 12.27638
 2018-Nov-14 04:13  m  01 34 37.643879 +22 25 12.10893
 2018-Nov-14 04:14  m  01 34 37.488493 +22 25 11.93882
 2018-Nov-14 04:15  m  01 34 37.333301 +22 25 11.76608
 2018-Nov-14 04:16  m  01 34 37.178304 +22 25 11.59069
 2018-Nov-14 04:17  m  01 34 37.023504 +22 25 11.41266
 2018-Nov-14 04:18  m  01 34 36.868904 +22 25 11.23201
 2018-Nov-14 04:19  m  01 34 36.714506 +22 25 11.04873
 2018-Nov-14 04:20  m  01 34 36.560312 +22 25 10.86283
 2018-Nov-14 04:21  m  01 34 36.406324 +22 25 10.67431
 2018-Nov-14 04:22  m  01 34 36.252545 +22 25 10.48318
 2018-Nov-14 04:23  m  01 34 36.098975 +22 25 10.28944
 2018-Nov-14 04:24  m  01 34 35.945619 +22 25 10.09310
 2018-Nov-14 04:25  m  01 34 35.792478 +22 25 09.89417
 2018-Nov-14 04:26  m  01 34 35.639553 +22 25 09.69264
 2018-Nov-14 04:27  m  01 34 35.486848 +22 25 09.48852
 2018-Nov-14 04:28  m  01 34 35.334364 +22 25 09.28182
 2018-Nov-14 04:29  m  01 34 35.182103 +22 25 09.07255
 2018-Nov-14 04:30  m  01 34 35.030068 +22 25 08.86070
 2018-Nov-14 04:31  m  01 34 34.878261 +22 25 08.64629
 2018-Nov-14 04:32  m  01 34 34.726684 +22 25 08.42932
 2018-Nov-14 04:33  m  01 34 34.575339 +22 25 08.20979
 2018-Nov-14 04:34  m  01 34 34.424227 +22 25 07.98771
 2018-Nov-14 04:35  m  01 34 34.273353 +22 25 07.76308
 2018-Nov-14 04:36  m  01 34 34.122716 +22 25 07.53592
 2018-Nov-14 04:37  m  01 34 33.972320 +22 25 07.30622
 2018-Nov-14 04:38  m  01 34 33.822167 +22 25 07.07399
 2018-Nov-14 04:39  m  01 34 33.672258 +22 25 06.83924
 2018-Nov-14 04:40  m  01 34 33.522596 +22 25 06.60197
 2018-Nov-14 04:41     01 34 33.373183 +22 25 06.36220
 2018-Nov-14 04:42     01 34 33.224021 +22 25 06.11991
 2018-Nov-14 04:43     01 34 33.075112 +22 25 05.87513
 2018-Nov-14 04:44     01 34 32.926458 +22 25 05.62786
 2018-Nov-14 04:45     01 34 32.778062 +22 25 05.37809
 2018-Nov-14 04:46     01 34 32.629924 +22 25 05.12585
 2018-Nov-14 04:47     01 34 32.482048 +22 25 04.87113
 2018-Nov-14 04:48     01 34 32.334436 +22 25 04.61394
 2018-Nov-14 04:49     01 34 32.187089 +22 25 04.35428
 2018-Nov-14 04:50     01 34 32.040009 +22 25 04.09217
 2018-Nov-14 04:51     01 34 31.893199 +22 25 03.82761
 2018-Nov-14 04:52     01 34 31.746661 +22 25 03.56061
 2018-Nov-14 04:53     01 34 31.600396 +22 25 03.29116
 2018-Nov-14 04:54     01 34 31.454407 +22 25 03.01929
 2018-Nov-14 04:55     01 34 31.308695 +22 25 02.74498
 2018-Nov-14 04:56     01 34 31.163263 +22 25 02.46826
 2018-Nov-14 04:57     01 34 31.018113 +22 25 02.18913
 2018-Nov-14 04:58     01 34 30.873247 +22 25 01.90759
 2018-Nov-14 04:59     01 34 30.728666 +22 25 01.62365
 2018-Nov-14 05:00     01 34 30.584373 +22 25 01.33732
 2018-Nov-14 05:01     01 34 30.440370 +22 25 01.04861
 2018-Nov-14 05:02     01 34 30.296659 +22 25 00.75751
 2018-Nov-14 05:03     01 34 30.153241 +22 25 00.46404
 2018-Nov-14 05:04     01 34 30.010119 +22 25 00.16821
 2018-Nov-14 05:05     01 34 29.867294 +22 24 59.87002
 2018-Nov-14 05:06     01 34 29.724769 +22 24 59.56947
 2018-Nov-14 05:07     01 34 29.582546 +22 24 59.26659
 2018-Nov-14 05:08     01 34 29.440626 +22 24 58.96136
 2018-Nov-14 05:09     01 34 29.299011 +22 24 58.65380
 2018-Nov-14 05:10     01 34 29.157704 +22 24 58.34392
 2018-Nov-14 05:11     01 34 29.016706 +22 24 58.03173
 2018-Nov-14 05:12     01 34 28.876019 +22 24 57.71722
 2018-Nov-14 05:13     01 34 28.735646 +22 24 57.40042
 2018-Nov-14 05:14     01 34 28.595588 +22 24 57.08132
 2018-Nov-14 05:15     01 34 28.455846 +22 24 56.75993
 2018-Nov-14 05:16     01 34 28.316424 +22 24 56.43626
 2018-Nov-14 05:17     01 34 28.177322 +22 24 56.11032
 2018-Nov-14 05:18     01 34 28.038543 +22 24 55.78212
 2018-Nov-14 05:19     01 34 27.900088 +22 24 55.45165
 2018-Nov-14 05:20     01 34 27.761960 +22 24 55.11894
 2018-Nov-14 05:21     01 34 27.624161 +22 24 54.78399
 2018-Nov-14 05:22     01 34 27.486691 +22 24 54.44680
 2018-Nov-14 05:23     01 34 27.349554 +22 24 54.10739
 2018-Nov-14 05:24     01 34 27.212750 +22 24 53.76576
 2018-Nov-14 05:25     01 34 27.076282 +22 24 53.42191
 2018-Nov-14 05:26     01 34 26.940152 +22 24 53.07586
 2018-Nov-14 05:27     01 34 26.804361 +22 24 52.72762
 2018-Nov-14 05:28     01 34 26.668912 +22 24 52.37719
 2018-Nov-14 05:29     01 34 26.533805 +22 24 52.02458
 2018-Nov-14 05:30     01 34 26.399043 +22 24 51.66980
 2018-Nov-14 05:31     01 34 26.264628 +22 24 51.31286
 2018-Nov-14 05:32     01 34 26.130562 +22 24 50.95376
